ONEWEB-0043             
1 45149U 20008U   23267.89063158  .00000513  00000+0  14325-2 0  9998
2 45149  87.8854 234.1175 0002048  99.0999 261.0360 13.10375701178481
ONEWEB-0044             
1 45150U 20008V   23268.37801894  .00000146  00000+0  38141-3 0  9996
2 45150  87.8846 234.0192 0002054  92.6392 267.4970 13.10375636178838
ONEWEB-0045             
1 45151U 20008W   23268.10752547 -.00000073  00000+0 -24158-3 0  9992
2 45151  87.8952 218.9129 0001988  74.2772 285.8575 13.11414958180639
ONEWEB-0047             
1 45152U 20008X   23267.91173989  .00000355  00000+0  98004-3 0  9990
2 45152  87.8847 234.1130 0001934  78.2722 281.8622 13.10376239177728
ONEWEB-0048             
1 45153U 20008Y   23267.90687666  .00000587  00000+0  16464-2 0  9998
2 45153  87.8850 234.1236 0001868  82.9562 277.1778 13.10376255178101
ONEWEB-0049             
1 45154U 20008Z   23267.98485717  .00000529  00000+0  14785-2 0  9990
2 45154  87.8854 234.0777 0001737  82.6808 277.4517 13.10376731178349
ONEWEB-0051             
1 45155U 20008AA  23268.10541405  .00000094  00000+0  22945-3 0  9998
2 45155  87.8958 218.9459 0001986  72.5078 287.6267 13.11414487181314
ONEWEB-0052             
1 45156U 20008AB  23267.98159756  .00000607  00000+0  17017-2 0  9991
2 45156  87.8856 234.0621 0001428 103.2160 256.9127 13.10377610178233
